0 CZ-3B DEB
1 38748U 10042C   13295.13456515  .00003710  00000-0  84998-2 0  1158
2 38748 023.4070 220.0829 7439634 088.3788 348.6520 02.03036998 15205
